ORBCOMM-X               
1 21576U 91050C   25128.16674144  .00000458  00000+0  14883-3 0  9990
2 21576  98.3452 195.5763 0002605 323.9796  36.1218 14.43231870776567
ORBCOMM FM08            
1 25112U 97084A   25127.68761548  .00001532  00000+0  46913-3 0  9997
2 25112  45.0125 202.2622 0004304  30.6297 329.4805 14.45693059435519
ORBCOMM FM10            
1 25113U 97084B   25128.21570014  .00001584  00000+0  48579-3 0  9991
2 25113  45.0143 202.0384 0003904 342.4099  17.6617 14.45485028435749
ORBCOMM FM11            
1 25114U 97084C   25128.48988108  .00001558  00000+0  48081-3 0  9997
2 25114  45.0129 201.2845 0004538 350.6392   9.4374 14.45237954435762
ORBCOMM FM12            
1 25115U 97084D   25128.17645112  .00001595  00000+0  49107-3 0  9990
2 25115  45.0138 202.5423 0003771 339.9597  20.1106 14.45257602435725
ORBCOMM FM09            
1 25116U 97084E   25128.48186984  .00001561  00000+0  48267-3 0  9991
2 25116  45.0141 201.9710 0005374 337.6407  22.4209 14.45137249435765
